[{"OBJECT_NAME":"IONOSFERA-M 4","OBJECT_ID":"2025-155B","EPOCH":"2026-04-26T14:45:56.496672","MEAN_MOTION":14.21479111,"ECCENTRICITY":0.00013935,"INCLINATION":98.5989,"RA_OF_ASC_NODE":79.748,"ARG_OF_PERICENTER":55.6718,"MEAN_ANOMALY":304.4592,"EPHEMERIS_TYPE":0,"CLASSIFICATION_TYPE":"U","NORAD_CAT_ID":64877,"ELEMENT_SET_NO":999,"REV_AT_EPOCH":3907,"BSTAR":4.57596e-5,"MEAN_MOTION_DOT":5.7e-7,"MEAN_MOTION_DDOT":0},{"OBJECT_NAME":"MICROCARB","OBJECT_ID":"2025-156A","EPOCH":"2026-04-26T11:58:02.609184","MEAN_MOTION":14.72269778,"ECCENTRICITY":0.00177426,"INCLINATION":97.9837,"RA_OF_ASC_NODE":194.5583,"ARG_OF_PERICENTER":78.9883,"MEAN_ANOMALY":281.3319,"EPHEMERIS_TYPE":0,"CLASSIFICATION_TYPE":"U","NORAD_CAT_ID":64899,"ELEMENT_SET_NO":999,"REV_AT_EPOCH":4036,"BSTAR":0.00010886702,"MEAN_MOTION_DOT":6.39e-6,"MEAN_MOTION_DDOT":0},{"OBJECT_NAME":"CO3D 3","OBJECT_ID":"2025-156B","EPOCH":"2026-04-26T15:33:40.774176","MEAN_MOTION":15.20208111,"ECCENTRICITY":0.00011284,"INCLINATION":97.4326,"RA_OF_ASC_NODE":196.082,"ARG_OF_PERICENTER":49.414,"MEAN_ANOMALY":310.7194,"EPHEMERIS_TYPE":0,"CLASSIFICATION_TYPE":"U","NORAD_CAT_ID":64900,"ELEMENT_SET_NO":999,"REV_AT_EPOCH":4170,"BSTAR":0.00026026378,"MEAN_MOTION_DOT":5.572e-5,"MEAN_MOTION_DDOT":0},{"OBJECT_NAME":"CO3D 4","OBJECT_ID":"2025-156C","EPOCH":"2026-04-26T07:39:58.955040","MEAN_MOTION":15.20218631,"ECCENTRICITY":0.00020053,"INCLINATION":97.4324,"RA_OF_ASC_NODE":195.7576,"ARG_OF_PERICENTER":104.9671,"MEAN_ANOMALY":255.1786,"EPHEMERIS_TYPE":0,"CLASSIFICATION_TYPE":"U","NORAD_CAT_ID":64901,"ELEMENT_SET_NO":999,"REV_AT_EPOCH":4165,"BSTAR":0.00016794712,"MEAN_MOTION_DOT":3.572e-5,"MEAN_MOTION_DDOT":0},{"OBJECT_NAME":"CO3D 2","OBJECT_ID":"2025-156D","EPOCH":"2026-04-26T14:45:52.835040","MEAN_MOTION":15.20198628,"ECCENTRICITY":6.303e-5,"INCLINATION":97.4325,"RA_OF_ASC_NODE":195.9481,"ARG_OF_PERICENTER":56.9854,"MEAN_ANOMALY":303.1441,"EPHEMERIS_TYPE":0,"CLASSIFICATION_TYPE":"U","NORAD_CAT_ID":64902,"ELEMENT_SET_NO":999,"REV_AT_EPOCH":4169,"BSTAR":0.00020014855,"MEAN_MOTION_DOT":4.267e-5,"MEAN_MOTION_DDOT":0},{"OBJECT_NAME":"CO3D 1","OBJECT_ID":"2025-156E","EPOCH":"2026-04-13T15:33:44.640576","MEAN_MOTION":15.19681462,"ECCENTRICITY":0.0110033,"INCLINATION":98.0928,"RA_OF_ASC_NODE":182.3847,"ARG_OF_PERICENTER":5.8142,"MEAN_ANOMALY":354.4339,"EPHEMERIS_TYPE":0,"CLASSIFICATION_TYPE":"U","NORAD_CAT_ID":64903,"ELEMENT_SET_NO":999,"REV_AT_EPOCH":3972,"BSTAR":0.00012932,"MEAN_MOTION_DOT":3.151e-5,"MEAN_MOTION_DDOT":0},{"OBJECT_NAME":"SENTINEL-6B","OBJECT_ID":"2025-264A","EPOCH":"2026-04-26T17:05:06.170208","MEAN_MOTION":12.80930819,"ECCENTRICITY":0.0007935,"INCLINATION":66.0413,"RA_OF_ASC_NODE":242.0915,"ARG_OF_PERICENTER":269.7204,"MEAN_ANOMALY":90.2902,"EPHEMERIS_TYPE":0,"CLASSIFICATION_TYPE":"U","NORAD_CAT_ID":66514,"ELEMENT_SET_NO":999,"REV_AT_EPOCH":2057,"BSTAR":-1.5954e-5,"MEAN_MOTION_DOT":-6.5e-7,"MEAN_MOTION_DDOT":0},{"OBJECT_NAME":"CSG-3","OBJECT_ID":"2026-001A","EPOCH":"2026-04-26T18:08:37.873824","MEAN_MOTION":14.82173001,"ECCENTRICITY":0.000139,"INCLINATION":97.8886,"RA_OF_ASC_NODE":301.102,"ARG_OF_PERICENTER":89.0522,"MEAN_ANOMALY":271.0851,"EPHEMERIS_TYPE":0,"CLASSIFICATION_TYPE":"U","NORAD_CAT_ID":67304,"ELEMENT_SET_NO":999,"REV_AT_EPOCH":1684,"BSTAR":5.79e-5,"MEAN_MOTION_DOT":4.09e-6,"MEAN_MOTION_DDOT":0}]
