IONOSFERA-M 4           
1 64877U 25155B   26116.61523723  .00000057  00000+0  45760-4 0  9992
2 64877  98.5989  79.7480 0001393  55.6718 304.4592 14.21479111 39072
MICROCARB               
1 64899U 25156A   26116.49864131  .00000639  00000+0  10887-3 0  9991
2 64899  97.9837 194.5583 0017742  78.9883 281.3319 14.72269778 40363
CO3D 3                  
1 64900U 25156B   26116.64838859  .00005572  00000+0  26026-3 0  9992
2 64900  97.4326 196.0820 0001128  49.4140 310.7194 15.20208111 41700
CO3D 4                  
1 64901U 25156C   26116.31943235  .00003572  00000+0  16795-3 0  9992
2 64901  97.4324 195.7576 0002005 104.9671 255.1786 15.20218631 41655
CO3D 2                  
1 64902U 25156D   26116.61519485  .00004267  00000+0  20015-3 0  9994
2 64902  97.4325 195.9481 0000630  56.9854 303.1441 15.20198628 41694
CO3D 1                  
1 64903U 25156E   26103.64843334  .00003151  00000+0  12932-3 0  9997
2 64903  98.0928 182.3847 0110033   5.8142 354.4339 15.19681462 39726
SENTINEL-6B             
1 66514U 25264A   26116.71187697 -.00000065  00000+0 -15954-4 0  9993
2 66514  66.0413 242.0915 0007935 269.7204  90.2902 12.80930819 20578
CSG-3                   
1 67304U 26001A   26116.75599391  .00000409  00000+0  57900-4 0  9990
2 67304  97.8886 301.1020 0001390  89.0522 271.0851 14.82173001 16844
